PROGRESS-MS 32          
1 65586U 25204A   25320.35281829  .00017169  00000+0  31117-3 0  9992
2 65586  51.6328 273.0879 0004158  76.5981 283.5471 15.49717811   270
CYGNUS NG-23            
1 65616U 25208A   25320.35281829  .00017169  00000+0  31117-3 0  9990
2 65616  51.6328 273.0879 0004158  76.5981 283.5471 15.49717811   229
DRAGONFLY               
1 65729U 98067XH  25320.08689097  .00137570  00000+0  14351-2 0  9996
2 65729  51.6292 271.3148 0005011 133.0413 227.1002 15.63546890  8980
1998-067XJ              
1 65730U 98067XJ  25320.14105115  .00590316  00000+0  29210-2 0  9990
2 65730  51.6238 268.6546 0011465 127.2634 232.9414 15.79809960  9027
1998-067XK              
1 65731U 98067XK  25320.13465717  .00098189  00000+0  11633-2 0  9998
2 65731  51.6311 271.6369 0005708 109.9077 250.2532 15.60422842  8986
RSP-03                  
1 65732U 98067XL  25320.11141684  .00115143  00000+0  12836-2 0  9997
2 65732  51.6295 271.4798 0006478 109.9703 250.1989 15.61923957  8993
GHS-01                  
1 65733U 98067XM  25320.58112878  .00170419  00000+0  16767-2 0  9996
2 65733  51.6301 268.6184 0005809 134.5817 225.5653 15.64902815  9073
YOTSUBA-KULOVER         
1 65941U 98067XN  25320.14669267  .00076142  00000+0  10921-2 0  9992
2 65941  51.6313 273.2137 0002409  74.9415 285.1842 15.55454209  5719
BOTAN                   
1 65942U 98067XP  25320.12951907  .00105993  00000+0  14231-2 0  9991
2 65942  51.6310 273.0997 0004675  83.2645 276.8878 15.57079826  5710
E-KAGAKU-1              
1 65943U 98067XQ  25320.14628501  .00076843  00000+0  11023-2 0  9992
2 65943  51.6321 273.2119 0004108  67.1958 292.9467 15.55442211  5713
HTV-X1                  
1 66174U 25241A   25320.35281829  .00017169  00000+0  31117-3 0  9997
2 66174  51.6328 273.0879 0004158  76.5981 283.5471 15.49717811  1455
