CCSDS_OMM_VERS = 2.0
CREATION_DATE  = 
ORIGINATOR     = 

OBJECT_NAME    = PROGRESS-MS 32
OBJECT_ID      = 2025-204A
CENTER_NAME    = EARTH
REF_FRAME      = TEME
TIME_SYSTEM    = UTC
MEAN_ELEMENT_THEORY = SGP/SGP4

EPOCH          = 2025-11-16T08:28:03.500256
MEAN_MOTION    = 15.49717811
ECCENTRICITY   = .00041587
INCLINATION    = 51.6328
RA_OF_ASC_NODE = 273.0879
ARG_OF_PERICENTER = 76.5981
MEAN_ANOMALY   = 283.5471

EPHEMERIS_TYPE = 0
CLASSIFICATION_TYPE = U
NORAD_CAT_ID   = 65586
ELEMENT_SET_NO = 999
REV_AT_EPOCH   = 27
BSTAR          = .3111695E-3
MEAN_MOTION_DOT = .17169E-3
MEAN_MOTION_DDOT = 0

CCSDS_OMM_VERS = 2.0
CREATION_DATE  = 
ORIGINATOR     = 

OBJECT_NAME    = CYGNUS NG-23
OBJECT_ID      = 2025-208A
CENTER_NAME    = EARTH
REF_FRAME      = TEME
TIME_SYSTEM    = UTC
MEAN_ELEMENT_THEORY = SGP/SGP4

EPOCH          = 2025-11-16T08:28:03.500256
MEAN_MOTION    = 15.49717811
ECCENTRICITY   = .00041587
INCLINATION    = 51.6328
RA_OF_ASC_NODE = 273.0879
ARG_OF_PERICENTER = 76.5981
MEAN_ANOMALY   = 283.5471

EPHEMERIS_TYPE = 0
CLASSIFICATION_TYPE = U
NORAD_CAT_ID   = 65616
ELEMENT_SET_NO = 999
REV_AT_EPOCH   = 22
BSTAR          = .3111695E-3
MEAN_MOTION_DOT = .17169E-3
MEAN_MOTION_DDOT = 0

CCSDS_OMM_VERS = 2.0
CREATION_DATE  = 
ORIGINATOR     = 

OBJECT_NAME    = DRAGONFLY
OBJECT_ID      = 1998-067XH
CENTER_NAME    = EARTH
REF_FRAME      = TEME
TIME_SYSTEM    = UTC
MEAN_ELEMENT_THEORY = SGP/SGP4

EPOCH          = 2025-11-16T02:05:07.379808
MEAN_MOTION    = 15.63546890
ECCENTRICITY   = .00050118
INCLINATION    = 51.6292
RA_OF_ASC_NODE = 271.3148
ARG_OF_PERICENTER = 133.0413
MEAN_ANOMALY   = 227.1002

EPHEMERIS_TYPE = 0
CLASSIFICATION_TYPE = U
NORAD_CAT_ID   = 65729
ELEMENT_SET_NO = 999
REV_AT_EPOCH   = 898
BSTAR          = .14350501E-2
MEAN_MOTION_DOT = .13757E-2
MEAN_MOTION_DDOT = 0

CCSDS_OMM_VERS = 2.0
CREATION_DATE  = 
ORIGINATOR     = 

OBJECT_NAME    = 1998-067XJ
OBJECT_ID      = 1998-067XJ
CENTER_NAME    = EARTH
REF_FRAME      = TEME
TIME_SYSTEM    = UTC
MEAN_ELEMENT_THEORY = SGP/SGP4

EPOCH          = 2025-11-16T03:23:06.819360
MEAN_MOTION    = 15.79809960
ECCENTRICITY   = .00114652
INCLINATION    = 51.6238
RA_OF_ASC_NODE = 268.6546
ARG_OF_PERICENTER = 127.2634
MEAN_ANOMALY   = 232.9414

EPHEMERIS_TYPE = 0
CLASSIFICATION_TYPE = U
NORAD_CAT_ID   = 65730
ELEMENT_SET_NO = 999
REV_AT_EPOCH   = 902
BSTAR          = .292101E-2
MEAN_MOTION_DOT = .590316E-2
MEAN_MOTION_DDOT = 0

CCSDS_OMM_VERS = 2.0
CREATION_DATE  = 
ORIGINATOR     = 

OBJECT_NAME    = 1998-067XK
OBJECT_ID      = 1998-067XK
CENTER_NAME    = EARTH
REF_FRAME      = TEME
TIME_SYSTEM    = UTC
MEAN_ELEMENT_THEORY = SGP/SGP4

EPOCH          = 2025-11-16T03:13:54.379488
MEAN_MOTION    = 15.60422842
ECCENTRICITY   = .00057084
INCLINATION    = 51.6311
RA_OF_ASC_NODE = 271.6369
ARG_OF_PERICENTER = 109.9077
MEAN_ANOMALY   = 250.2532

EPHEMERIS_TYPE = 0
CLASSIFICATION_TYPE = U
NORAD_CAT_ID   = 65731
ELEMENT_SET_NO = 999
REV_AT_EPOCH   = 898
BSTAR          = .11633371E-2
MEAN_MOTION_DOT = .98189E-3
MEAN_MOTION_DDOT = 0

CCSDS_OMM_VERS = 2.0
CREATION_DATE  = 
ORIGINATOR     = 

OBJECT_NAME    = RSP-03
OBJECT_ID      = 1998-067XL
CENTER_NAME    = EARTH
REF_FRAME      = TEME
TIME_SYSTEM    = UTC
MEAN_ELEMENT_THEORY = SGP/SGP4

EPOCH          = 2025-11-16T02:40:26.414976
MEAN_MOTION    = 15.61923957
ECCENTRICITY   = .0006478
INCLINATION    = 51.6295
RA_OF_ASC_NODE = 271.4798
ARG_OF_PERICENTER = 109.9703
MEAN_ANOMALY   = 250.1989

EPHEMERIS_TYPE = 0
CLASSIFICATION_TYPE = U
NORAD_CAT_ID   = 65732
ELEMENT_SET_NO = 999
REV_AT_EPOCH   = 899
BSTAR          = .12836237E-2
MEAN_MOTION_DOT = .115143E-2
MEAN_MOTION_DDOT = 0

CCSDS_OMM_VERS = 2.0
CREATION_DATE  = 
ORIGINATOR     = 

OBJECT_NAME    = GHS-01
OBJECT_ID      = 1998-067XM
CENTER_NAME    = EARTH
REF_FRAME      = TEME
TIME_SYSTEM    = UTC
MEAN_ELEMENT_THEORY = SGP/SGP4

EPOCH          = 2025-11-16T13:56:49.526592
MEAN_MOTION    = 15.64902815
ECCENTRICITY   = .00058094
INCLINATION    = 51.6301
RA_OF_ASC_NODE = 268.6184
ARG_OF_PERICENTER = 134.5817
MEAN_ANOMALY   = 225.5653

EPHEMERIS_TYPE = 0
CLASSIFICATION_TYPE = U
NORAD_CAT_ID   = 65733
ELEMENT_SET_NO = 999
REV_AT_EPOCH   = 907
BSTAR          = .16766762E-2
MEAN_MOTION_DOT = .170419E-2
MEAN_MOTION_DDOT = 0

CCSDS_OMM_VERS = 2.0
CREATION_DATE  = 
ORIGINATOR     = 

OBJECT_NAME    = YOTSUBA-KULOVER
OBJECT_ID      = 1998-067XN
CENTER_NAME    = EARTH
REF_FRAME      = TEME
TIME_SYSTEM    = UTC
MEAN_ELEMENT_THEORY = SGP/SGP4

EPOCH          = 2025-11-16T03:31:14.246688
MEAN_MOTION    = 15.55454209
ECCENTRICITY   = .00024091
INCLINATION    = 51.6313
RA_OF_ASC_NODE = 273.2137
ARG_OF_PERICENTER = 74.9415
MEAN_ANOMALY   = 285.1842

EPHEMERIS_TYPE = 0
CLASSIFICATION_TYPE = U
NORAD_CAT_ID   = 65941
ELEMENT_SET_NO = 999
REV_AT_EPOCH   = 571
BSTAR          = .1092102E-2
MEAN_MOTION_DOT = .76142E-3
MEAN_MOTION_DDOT = 0

CCSDS_OMM_VERS = 2.0
CREATION_DATE  = 
ORIGINATOR     = 

OBJECT_NAME    = BOTAN
OBJECT_ID      = 1998-067XP
CENTER_NAME    = EARTH
REF_FRAME      = TEME
TIME_SYSTEM    = UTC
MEAN_ELEMENT_THEORY = SGP/SGP4

EPOCH          = 2025-11-16T03:06:30.447648
MEAN_MOTION    = 15.57079826
ECCENTRICITY   = .0004675
INCLINATION    = 51.6310
RA_OF_ASC_NODE = 273.0997
ARG_OF_PERICENTER = 83.2645
MEAN_ANOMALY   = 276.8878

EPHEMERIS_TYPE = 0
CLASSIFICATION_TYPE = U
NORAD_CAT_ID   = 65942
ELEMENT_SET_NO = 999
REV_AT_EPOCH   = 571
BSTAR          = .14231483E-2
MEAN_MOTION_DOT = .105993E-2
MEAN_MOTION_DDOT = 0

CCSDS_OMM_VERS = 2.0
CREATION_DATE  = 
ORIGINATOR     = 

OBJECT_NAME    = E-KAGAKU-1
OBJECT_ID      = 1998-067XQ
CENTER_NAME    = EARTH
REF_FRAME      = TEME
TIME_SYSTEM    = UTC
MEAN_ELEMENT_THEORY = SGP/SGP4

EPOCH          = 2025-11-16T03:30:39.024864
MEAN_MOTION    = 15.55442211
ECCENTRICITY   = .00041084
INCLINATION    = 51.6321
RA_OF_ASC_NODE = 273.2119
ARG_OF_PERICENTER = 67.1958
MEAN_ANOMALY   = 292.9467

EPHEMERIS_TYPE = 0
CLASSIFICATION_TYPE = U
NORAD_CAT_ID   = 65943
ELEMENT_SET_NO = 999
REV_AT_EPOCH   = 571
BSTAR          = .11022743E-2
MEAN_MOTION_DOT = .76843E-3
MEAN_MOTION_DDOT = 0

CCSDS_OMM_VERS = 2.0
CREATION_DATE  = 
ORIGINATOR     = 

OBJECT_NAME    = HTV-X1
OBJECT_ID      = 2025-241A
CENTER_NAME    = EARTH
REF_FRAME      = TEME
TIME_SYSTEM    = UTC
MEAN_ELEMENT_THEORY = SGP/SGP4

EPOCH          = 2025-11-16T08:28:03.500256
MEAN_MOTION    = 15.49717811
ECCENTRICITY   = .00041587
INCLINATION    = 51.6328
RA_OF_ASC_NODE = 273.0879
ARG_OF_PERICENTER = 76.5981
MEAN_ANOMALY   = 283.5471

EPHEMERIS_TYPE = 0
CLASSIFICATION_TYPE = U
NORAD_CAT_ID   = 66174
ELEMENT_SET_NO = 999
REV_AT_EPOCH   = 145
BSTAR          = .3111695E-3
MEAN_MOTION_DOT = .17169E-3
MEAN_MOTION_DDOT = 0

